[
  { 
    "name" : "STARLETTE",
    "tle_line_1" : "1 07646U 75010A   22116.49146079 -.00000124  00000+0  16487-4 0  9995",
    "tle_line_2" : "2 07646  49.8236 315.2979 0205699 105.9387 256.4275 13.82311843385299" 
  },
  { 
    "name" : "LAGEOS 1",
    "tle_line_1" : "1 08820U 76039A   22116.46962932 -.00000018  00000+0  00000+0 0  9994",
    "tle_line_2" : "2 08820 109.8617  21.1878 0045061 265.8973 245.0304  6.38665056816531" 
  },
  { 
    "name" : "AJISAI (EGS)",
    "tle_line_1" : "1 16908U 86061A   22116.93179542 -.00000072  00000+0  17815-3 0  9991",
    "tle_line_2" : "2 16908  50.0070 117.4590 0011366 291.2417  82.7913 12.44496354292430" 
  },
  { 
    "name" : "COSMOS 1989 (ETALON 1)",
    "tle_line_1" : "1 19751U 89001C   22116.72826986  .00000090  00000+0  00000+0 0  9998",
    "tle_line_2" : "2 19751  64.2917 124.1656 0023718 213.2141 150.0940  2.13156277259193" 
  },
  { 
    "name" : "COSMOS 2024 (ETALON 2)",
    "tle_line_1" : "1 20026U 89039C   22116.29982910 -.00000081  00000+0  00000+0 0  9999",
    "tle_line_2" : "2 20026  65.5444   2.1506 0018338 218.9265  76.7070  2.13204281256249" 
  },
  { 
    "name" : "LAGEOS 2",
    "tle_line_1" : "1 22195U 92070B   22116.36535591 -.00000009  00000+0  00000+0 0  9994",
    "tle_line_2" : "2 22195  52.6388 142.7200 0137986 246.1036 117.6789  6.47294264697482" 
  },
  { 
    "name" : "STELLA",
    "tle_line_1" : "1 22824U 93061B   22116.54851417 -.00000025  00000+0  90003-5 0  9998",
    "tle_line_2" : "2 22824  98.9685 136.1423 0005575 312.3208 213.1411 14.27389577488978" 
  },
  { 
    "name" : "LARES",
    "tle_line_1" : "1 38077U 12006A   22116.94082927 -.00000009  00000+0  18148-3 0  9991",
    "tle_line_2" : "2 38077  69.4966 355.2993 0007310  12.5839 347.5358 12.54931427467440" 
  }
]